{"type": "FeatureCollection", "features": [ {"type": "Feature", "properties": {"norad_id": 57401, "name": "TIANMU-1 09", "group": "weather", "lat": -35.708827541604826, "lon": 44.310499309663356, "alt_km": 489.38354633542804, "timestamp": "2025-12-15T22:44:28.563840+00:00", "meta": {"OBJECT_NAME": "TIANMU-1 09", "OBJECT_ID": "2023-101C", "EPOCH": "2025-12-15T07:10:59.151072", "MEAN_MOTION": 15.2812625, "ECCENTRICITY": 0.00067275, "INCLINATION": 97.2827, "RA_OF_ASC_NODE": 38.4025, "ARG_OF_PERICENTER": 76.8413, "MEAN_ANOMALY": 283.3577, "EPHEMERIS_TYPE": 0, "CLASSIFICATION_TYPE": "U", "NORAD_CAT_ID": 57401, "ELEMENT_SET_NO": 999, "REV_AT_EPOCH": 13354, "BSTAR": 0.00022072396, "MEAN_MOTION_DOT": 5.983e-05, "MEAN_MOTION_DDOT": 0}, "tle": {"line1": "1 57401U 23101C   25349.29929573  .00005983  00000+0  22072-3 0  9993", "line2": "2 57401  97.2827  38.4025 0006727  76.8413 283.3577 15.28126250133540"}}, "geometry": {"type": "Point", "coordinates": [44.310499309663356, -35.708827541604826]}}, {"type": "Feature", "properties": {"norad_id": 57402, "name": "TIANMU-1 10", "group": "weather", "lat": 43.42590717296391, "lon": -133.15066903479195, "alt_km": 475.1620893971731, "timestamp": "2025-12-15T22:44:28.563856+00:00", "meta": {"OBJECT_NAME": "TIANMU-1 10", "OBJECT_ID": "2023-101D", "EPOCH": "2025-12-15T09:34:34.053600", "MEAN_MOTION": 15.28118611, "ECCENTRICITY": 0.00084493, "INCLINATION": 97.2906, "RA_OF_ASC_NODE": 39.3525, "ARG_OF_PERICENTER": 75.7514, "MEAN_ANOMALY": 284.4663, "EPHEMERIS_TYPE": 0, "CLASSIFICATION_TYPE": "U", "NORAD_CAT_ID": 57402, "ELEMENT_SET_NO": 999, "REV_AT_EPOCH": 13355, "BSTAR": 0.00020728242, "MEAN_MOTION_DOT": 5.615e-05, "MEAN_MOTION_DDOT": 0}, "tle": {"line1": "1 57402U 23101D   25349.39900525  .00005615  00000+0  20728-3 0  9999", "line2": "2 57402  97.2906  39.3525 0008449  75.7514 284.4663 15.28118611133558"}}, "geometry": {"type": "Point", "coordinates": [-133.15066903479195, 43.42590717296391]}}, {"type": "Feature", "properties": {"norad_id": 57490, "name": "FENGYUN 3F", "group": "weather", "lat": -47.50257514143594, "lon": -131.44026324350477, "alt_km": 832.7503517697751, "timestamp": "2025-12-15T22:44:28.563873+00:00", "meta": {"OBJECT_NAME": "FENGYUN 3F", "OBJECT_ID": "2023-111A", "EPOCH": "2025-12-15T08:08:25.089792", "MEAN_MOTION": 14.19894246, "ECCENTRICITY": 6.84e-05, "INCLINATION": 98.7081, "RA_OF_ASC_NODE": 57.5906, "ARG_OF_PERICENTER": 107.0859, "MEAN_ANOMALY": 253.0392, "EPHEMERIS_TYPE": 0, "CLASSIFICATION_TYPE": "U", "NORAD_CAT_ID": 57490, "ELEMENT_SET_NO": 999, "REV_AT_EPOCH": 12277, "BSTAR": 5.6581737e-05, "MEAN_MOTION_DOT": 7.6e-07, "MEAN_MOTION_DDOT": 0}, "tle": {"line1": "1 57490U 23111A   25349.33917928  .00000076  00000+0  56582-4 0  9990", "line2": "2 57490  98.7081  57.5906 0000684 107.0859 253.0392 14.19894246122771"}}, "geometry": {"type": "Point", "coordinates": [-131.44026324350477, -47.50257514143594]}}, {"type": "Feature", "properties": {"norad_id": 58584, "name": "ARKTIKA-M 2", "group": "weather", "lat": 56.56435585811868, "lon": -135.55614368933726, "alt_km": 33690.40508728447, "timestamp": "2025-12-15T22:44:28.563893+00:00", "meta": {"OBJECT_NAME": "ARKTIKA-M 2", "OBJECT_ID": "2023-198A", "EPOCH": "2025-12-15T07:41:54.278304", "MEAN_MOTION": 2.00603484, "ECCENTRICITY": 0.6865091, "INCLINATION": 63.2249, "RA_OF_ASC_NODE": 174.6089, "ARG_OF_PERICENTER": 268.096, "MEAN_ANOMALY": 18.8351, "EPHEMERIS_TYPE": 0, "CLASSIFICATION_TYPE": "U", "NORAD_CAT_ID": 58584, "ELEMENT_SET_NO": 999, "REV_AT_EPOCH": 1463, "BSTAR": 0, "MEAN_MOTION_DOT": 2.02e-06, "MEAN_MOTION_DDOT": 0}, "tle": {"line1": "1 58584U 23198A   25349.32076711  .00000202  00000+0  00000+0 0  9995", "line2": "2 58584  63.2249 174.6089 6865091 268.0960  18.8351  2.00603484 14636"}}, "geometry": {"type": "Point", "coordinates": [-135.55614368933726, 56.56435585811868]}}, {"type": "Feature", "properties": {"norad_id": 58645, "name": "TIANMU-1 11", "group": "weather", "lat": -81.1519973348002, "lon": 65.65931398846338, "alt_km": 494.32137096152474, "timestamp": "2025-12-15T22:44:28.563912+00:00", "meta": {"OBJECT_NAME": "TIANMU-1 11", "OBJECT_ID": "2023-205A", "EPOCH": "2025-12-15T07:21:43.142112", "MEAN_MOTION": 15.24633963, "ECCENTRICITY": 0.00077461, "INCLINATION": 97.3608, "RA_OF_ASC_NODE": 8.8852, "ARG_OF_PERICENTER": 299.7877, "MEAN_ANOMALY": 60.259, "EPHEMERIS_TYPE": 0, "CLASSIFICATION_TYPE": "U", "NORAD_CAT_ID": 58645, "ELEMENT_SET_NO": 999, "REV_AT_EPOCH": 10948, "BSTAR": 0.00018669724, "MEAN_MOTION_DOT": 4.54e-05, "MEAN_MOTION_DDOT": 0}, "tle": {"line1": "1 58645U 23205A   25349.30674933  .00004540  00000+0  18670-3 0  9995", "line2": "2 58645  97.3608   8.8852 0007746 299.7877  60.2590 15.24633963109483"}}, "geometry": {"type": "Point", "coordinates": [65.65931398846338, -81.1519973348002]}}, {"type": "Feature", "properties": {"norad_id": 58646, "name": "TIANMU-1 12", "group": "weather", "lat": 53.49088331598, "lon": -160.62465093750677, "alt_km": 490.7300777921291, "timestamp": "2025-12-15T22:44:28.563929+00:00", "meta": {"OBJECT_NAME": "TIANMU-1 12", "OBJECT_ID": "2023-205B", "EPOCH": "2025-12-15T08:00:48.432960", "MEAN_MOTION": 15.24518163, "ECCENTRICITY": 0.00057912, "INCLINATION": 97.3595, "RA_OF_ASC_NODE": 8.7165, "ARG_OF_PERICENTER": 279.5213, "MEAN_ANOMALY": 80.537, "EPHEMERIS_TYPE": 0, "CLASSIFICATION_TYPE": "U", "NORAD_CAT_ID": 58646, "ELEMENT_SET_NO": 999, "REV_AT_EPOCH": 10947, "BSTAR": 0.00021370916, "MEAN_MOTION_DOT": 5.187e-05, "MEAN_MOTION_DDOT": 0}, "tle": {"line1": "1 58646U 23205B   25349.33389390  .00005187  00000+0  21371-3 0  9999", "line2": "2 58646  97.3595   8.7165 0005791 279.5213  80.5370 15.24518163109477"}}, "geometry": {"type": "Point", "coordinates": [-160.62465093750677, 53.49088331598]}}, {"type": "Feature", "properties": {"norad_id": 58647, "name": "TIANMU-1 13", "group": "weather", "lat": -56.960306241158655, "lon": 20.988398650331558, "alt_km": 496.4814579341755, "timestamp": "2025-12-15T22:44:28.563949+00:00", "meta": {"OBJECT_NAME": "TIANMU-1 13", "OBJECT_ID": "2023-205C", "EPOCH": "2025-12-15T08:49:00.551136", "MEAN_MOTION": 15.24561203, "ECCENTRICITY": 0.00060629, "INCLINATION": 97.3623, "RA_OF_ASC_NODE": 8.9514, "ARG_OF_PERICENTER": 255.2985, "MEAN_ANOMALY": 104.7581, "EPHEMERIS_TYPE": 0, "CLASSIFICATION_TYPE": "U", "NORAD_CAT_ID": 58647, "ELEMENT_SET_NO": 999, "REV_AT_EPOCH": 10947, "BSTAR": 0.00019467455, "MEAN_MOTION_DOT": 4.725e-05, "MEAN_MOTION_DDOT": 0}, "tle": {"line1": "1 58647U 23205C   25349.36736749  .00004725  00000+0  19467-3 0  9997", "line2": "2 58647  97.3623   8.9514 0006062 255.2985 104.7581 15.24561203109475"}}, "geometry": {"type": "Point", "coordinates": [20.988398650331558, -56.960306241158655]}}, {"type": "Feature", "properties": {"norad_id": 58648, "name": "TIANMU-1 14", "group": "weather", "lat": 32.81964382568983, "lon": 4.088238900424509, "alt_km": 493.50613701465045, "timestamp": "2025-12-15T22:44:28.563965+00:00", "meta": {"OBJECT_NAME": "TIANMU-1 14", "OBJECT_ID": "2023-205D", "EPOCH": "2025-12-15T08:25:08.736384", "MEAN_MOTION": 15.24544637, "ECCENTRICITY": 0.00068384, "INCLINATION": 97.3556, "RA_OF_ASC_NODE": 8.2814, "ARG_OF_PERICENTER": 261.2392, "MEAN_ANOMALY": 98.8071, "EPHEMERIS_TYPE": 0, "CLASSIFICATION_TYPE": "U", "NORAD_CAT_ID": 58648, "ELEMENT_SET_NO": 999, "REV_AT_EPOCH": 10947, "BSTAR": 0.0002069913, "MEAN_MOTION_DOT": 5.027e-05, "MEAN_MOTION_DDOT": 0}, "tle": {"line1": "1 58648U 23205D   25349.35079556  .00005027  00000+0  20699-3 0  9998", "line2": "2 58648  97.3556   8.2814 0006838 261.2392  98.8071 15.24544637109476"}}, "geometry": {"type": "Point", "coordinates": [4.088238900424509, 32.81964382568983]}}, {"type": "Feature", "properties": {"norad_id": 58660, "name": "TIANMU-1 19", "group": "weather", "lat": -32.99191719552088, "lon": 105.84375308063655, "alt_km": 488.1627823130757, "timestamp": "2025-12-15T22:44:28.563984+00:00", "meta": {"OBJECT_NAME": "TIANMU-1 19", "OBJECT_ID": "2023-208A", "EPOCH": "2025-12-15T07:10:08.053248", "MEAN_MOTION": 15.27901283, "ECCENTRICITY": 0.00041978, "INCLINATION": 97.4386, "RA_OF_ASC_NODE": 100.3305, "ARG_OF_PERICENTER": 241.5083, "MEAN_ANOMALY": 118.5734, "EPHEMERIS_TYPE": 0, "CLASSIFICATION_TYPE": "U", "NORAD_CAT_ID": 58660, "ELEMENT_SET_NO": 999, "REV_AT_EPOCH": 10921, "BSTAR": 0.00024834793, "MEAN_MOTION_DOT": 6.69e-05, "MEAN_MOTION_DDOT": 0}, "tle": {"line1": "1 58660U 23208A   25349.29870432  .00006690  00000+0  24835-3 0  9993", "line2": "2 58660  97.4386 100.3305 0004197 241.5083 118.5734 15.27901283109210"}}, "geometry": {"type": "Point", "coordinates": [105.84375308063655, -32.99191719552088]}}, {"type": "Feature", "properties": {"norad_id": 58661, "name": "TIANMU-1 20", "group": "weather", "lat": 53.99905321804323, "lon": 91.07809359043239, "alt_km": 477.5925030219232, "timestamp": "2025-12-15T22:44:28.564021+00:00", "meta": {"OBJECT_NAME": "TIANMU-1 20", "OBJECT_ID": "2023-208B", "EPOCH": "2025-12-15T08:22:03.758304", "MEAN_MOTION": 15.29092744, "ECCENTRICITY": 0.00063573, "INCLINATION": 97.4323, "RA_OF_ASC_NODE": 100.8304, "ARG_OF_PERICENTER": 254.9892, "MEAN_ANOMALY": 105.0645, "EPHEMERIS_TYPE": 0, "CLASSIFICATION_TYPE": "U", "NORAD_CAT_ID": 58661, "ELEMENT_SET_NO": 999, "REV_AT_EPOCH": 10929, "BSTAR": 0.0002507377, "MEAN_MOTION_DOT": 7.009e-05, "MEAN_MOTION_DDOT": 0}, "tle": {"line1": "1 58661U 23208B   25349.34865461  .00007009  00000+0  25074-3 0  9997", "line2": "2 58661  97.4323 100.8304 0006357 254.9892 105.0645 15.29092744109297"}}, "geometry": {"type": "Point", "coordinates": [91.07809359043239, 53.99905321804323]}}]}